[{"OBJECT_NAME":"STARLINK-33983","OBJECT_ID":"2025-098Y","EPOCH":"2026-03-09T21:26:21.910560","MEAN_MOTION":14.98330697,"ECCENTRICITY":0.00028342,"INCLINATION":70.0001,"RA_OF_ASC_NODE":273.914,"ARG_OF_PERICENTER":265.8218,"MEAN_ANOMALY":94.2617,"EPHEMERIS_TYPE":0,"CLASSIFICATION_TYPE":"U","NORAD_CAT_ID":63948,"ELEMENT_SET_NO":999,"REV_AT_EPOCH":4658,"BSTAR":0.00012182006,"MEAN_MOTION_DOT":1.361e-5,"MEAN_MOTION_DDOT":0},{"OBJECT_NAME":"IRIDIUM 33 DEB","OBJECT_ID":"1997-051VK","EPOCH":"2026-03-08T19:51:10.655424","MEAN_MOTION":15.00290565,"ECCENTRICITY":0.00168472,"INCLINATION":86.319,"RA_OF_ASC_NODE":266.0445,"ARG_OF_PERICENTER":92.2879,"MEAN_ANOMALY":268.0282,"EPHEMERIS_TYPE":0,"CLASSIFICATION_TYPE":"U","NORAD_CAT_ID":36028,"ELEMENT_SET_NO":999,"REV_AT_EPOCH":88413,"BSTAR":0.0028450528,"MEAN_MOTION_DOT":0.00035903,"MEAN_MOTION_DDOT":0}]
